GLOBALSTAR M063         
1 26081U 00008A   25098.32664052 -.00000037  00000+0  66486-3 0  9990
2 26081  51.9953 295.5624 0004736 172.2963 358.4638 11.86168296149283
GLOBALSTAR M062         
1 26082U 00008B   25098.50056876 -.00000011  00000+0  62611-3 0  9998
2 26082  51.9851 300.7116 0006555 329.3117  42.2193 12.43463114487957
GLOBALSTAR M060         
1 26083U 00008C   25098.44766449 -.00000057  00000+0  33349-3 0  9992
2 26083  52.0011 251.0063 0002667 353.9343  40.2400 12.17660001143875
GLOBALSTAR M064         
1 26084U 00008D   25098.17268343 -.00000074  00000+0  13756-3 0  9992
2 26084  52.0061  35.6151 0001212 298.6715  61.3996 11.88532236158772
GLOBALSTAR M065         
1 31571U 07020A   25098.39377685 -.00000043  00000+0  34174-3 0  9997
2 31571  51.9884  78.6942 0010327 151.1716  13.6028 12.62004402824594
GLOBALSTAR M069         
1 31573U 07020C   25098.62858910 -.00000071  00000+0  19455-3 0  9996
2 31573  51.9965  46.7639 0000931  40.1157 131.0779 12.42143959825522
GLOBALSTAR M072         
1 31574U 07020D   25098.46176096 -.00000084  00000+0 -31531-5 0  9993
2 31574  51.9922 177.5955 0001437 176.3643 196.5267 11.91648206823157
GLOBALSTAR M071         
1 31576U 07020F   25098.32664050  .00000001  00000+0  90948-3 0  9994
2 31576  52.0062  66.5829 0000853 344.3871 163.9740 12.18251688486427
